[{"OBJECT_NAME":"HST","OBJECT_ID":"1990-037B","EPOCH":"2026-03-09T03:50:04.164288","MEAN_MOTION":15.29473555,"ECCENTRICITY":0.00018372,"INCLINATION":28.4717,"RA_OF_ASC_NODE":43.6133,"ARG_OF_PERICENTER":120.9992,"MEAN_ANOMALY":239.0785,"EPHEMERIS_TYPE":0,"CLASSIFICATION_TYPE":"U","NORAD_CAT_ID":20580,"ELEMENT_SET_NO":999,"REV_AT_EPOCH":77323,"BSTAR":0.0003002261,"MEAN_MOTION_DOT":9.063e-5,"MEAN_MOTION_DDOT":0},{"OBJECT_NAME":"STARLINK-3669","OBJECT_ID":"2022-025R","EPOCH":"2026-03-09T06:46:46.342848","MEAN_MOTION":15.29361516,"ECCENTRICITY":0.00011966,"INCLINATION":53.1571,"RA_OF_ASC_NODE":26.2555,"ARG_OF_PERICENTER":96.9163,"MEAN_ANOMALY":263.1974,"EPHEMERIS_TYPE":0,"CLASSIFICATION_TYPE":"U","NORAD_CAT_ID":51971,"ELEMENT_SET_NO":999,"REV_AT_EPOCH":22095,"BSTAR":4.4702096e-5,"MEAN_MOTION_DOT":9.34e-6,"MEAN_MOTION_DDOT":0}]
